[Satellite]
VERSION=1.1
NAME=SL-16 R/B
NICKNAME=SL-16 R/B
TLE1=1 16182U 85097B   18020.96185646  .00000243  00000-0  14681-3 0  9995
TLE2=2 16182  71.0023 269.8717 0005426 108.1370  13.0963 14.16225789666779
